Name,Street,City,StateZip,Telephone,Web
Alison at Blue Bell,721 Skippack Pike,Blue Bell, PA 19422 
Amada,217 Chestnut St,Philadelphia, PA 19106
Ansill,627 S 3rd St,Philadelphia, PA 19147
Barclay Prime,237 S 18th St,Philadelphia, PA 19103
Brasserie Perrier,1619 Walnut St,Philadelphia, PA 19103
Buddakan,325 Chestnut St,Philadelphia, PA 19106
The Capital Grille,1338 Chestnut St,Philadelphia, PA 19107
Carmine's Creole Cafe,818 W Lancaster Ave,Bryn Mawr, PA 19010
Cherry Street Chinese Kosher Vegetarian Restaurant,1010 Cherry St,Philadelphia, PA 19107
Devi,151 W Lincoln Hwy,Exton, PA 1934
Dilworthtown Inn,1390 Old Wilmington Pike,West Chester, PA 19382
Django,526 S 4th St,Philadelphia, PA 19147
Dmitri's,2227 Pine St,Philadelphia, PA 19103
El Vez,121 S 13th St,Philadelphia, PA 19107
Famous 4th Street Delicatessen,700 S 4th St,Philadelphia, PA 19147
Fork,306 Market St,Philadelphia, PA 19106
Fountain Restaurant,1 Logan Square,Philadelphia, PA 19103,215-963-1500,www.fourseasons.com/philadelphia
Friday Saturday Sunday,261 S 21st St,Philadelphia, PA 19103,215-546-4232,www.frisatsun.com
Gayle,617 S 3rd St,Philadelphia, PA 19147,215-922-3850,www.gaylephiladelphia.com
Gilmore's,133 E Gay St,West Chester, PA 19380,610-431-2800,www.gilmoresrestaurant.com
Horizons,611 S 7th St,Philadelphia, PA 19147
Jake's,4365 Main St,Philadelphia, PA 19127
John's Roast Pork,14 E Snyder Ave,Philadelphia, PA 19148
Karma,114 Chestnut St,Philadelphia, PA 19106
Kristian's Ristorante,1100 Federal St,Philadelphia, PA 19147
La Lupe,1201 S 9th St,Philadelphia, PA 19147
L'Angolo,1415 W Porter St,Philadelphia, PA 19145
Le Bec-Fin,1523 Walnut St,Philadelphia, PA 19102
Lolita,106 S 13th St,Philadelphia, PA 19107
Los Catrines Restaurant & Tequila's Bar,1602 Locust St,Philadelphia, PA 19103
Margaret Kuo's,175 E Lancaster Ave,Wayne, PA 19087,,www.margaretkuo.com/wayne.html
Marigold Kitchen,501 S 45th St,Philadelphia, PA 19104
Marsha Brown,15 S Main St,New Hope, PA 18938
Matyson,37 S 19th St,Philadelphia, PA 19103
Melograno,2201 Spruce St,Philadelphia, PA 19103
Monk's Cafe,264 S 16th St,Philadelphia, PA 19102
Morimoto,723 Chestnut St,Philadelphia, PA 19106
Moro,1307 N Scott St,Wilmington, DE 19806
Moshulu,401 S Columbus Blvd,Philadelphia, PA 19106
N. 3rd,801 N 3rd St,Philadelphia, PA 19123
Nam Phong,1100 Washington Ave,Philadelphia, PA 19147
Nan,4000 Chestnut St,Philadelphia, PA 19104
Nectar,1091 Lancaster Ave,Berwyn, PA 19312
